{"type":"FeatureCollection","metadata":{"purpose":"Kakao 초기 수집 범위 검토용. Place Area 배정에는 사용하지 않음.","source":"seoul-service-area-boundaries.geojson"},"features":[{"type":"Feature","properties":{"cityCode":"SEOUL","areaCode":"SEOUL_BUKHANSAN_GANGBUK","areaName":"북한산·강북","centerLongitude":"127.0103317","centerLatitude":"37.6290313","calculationMethod":"LEGAL_DONG_BOUNDARY_BBOX","notes":"법정동 경계를 모두 감싸는 초기 Kakao rect 검색 범위. Place Area 배정에는 사용하지 않음."},"geometry":{"type":"Polygon","coordinates":[[[126.9489175,37.5730497],[127.0717459,37.5730497],[127.0717459,37.6850128],[126.9489175,37.6850128],[126.9489175,37.5730497]]]}},{"type":"Feature","properties":{"cityCode":"SEOUL","areaCode":"SEOUL_DOBONG_NOWON","areaName":"도봉·노원","centerLongitude":"127.0600711","centerLatitude":"37.6577889","calculationMethod":"LEGAL_DONG_BOUNDARY_BBOX","notes":"법정동 경계를 모두 감싸는 초기 Kakao rect 검색 범위. Place Area 배정에는 사용하지 않음."},"geometry":{"type":"Polygon","coordinates":[[[127.0076442,37.6142763],[127.1124979,37.6142763],[127.1124979,37.7013015],[127.0076442,37.7013015],[127.0076442,37.6142763]]]}},{"type":"Feature","properties":{"cityCode":"SEOUL","areaCode":"SEOUL_EUNPYEONG_YEONHUI","areaName":"은평·서대문","centerLongitude":"126.9227130","centerLatitude":"37.6100675","calculationMethod":"LEGAL_DONG_BOUNDARY_BBOX","notes":"법정동 경계를 모두 감싸는 초기 Kakao rect 검색 범위. Place Area 배정에는 사용하지 않음."},"geometry":{"type":"Polygon","coordinates":[[[126.8820758,37.5609176],[126.9633503,37.5609176],[126.9633503,37.6592174],[126.8820758,37.6592174],[126.8820758,37.5609176]]]}},{"type":"Feature","properties":{"cityCode":"SEOUL","areaCode":"SEOUL_SINCHON_EWHA","areaName":"신촌·이대","centerLongitude":"126.9441600","centerLatitude":"37.5662333","calculationMethod":"LEGAL_DONG_BOUNDARY_BBOX","notes":"법정동 경계를 모두 감싸는 초기 Kakao rect 검색 범위. Place Area 배정에는 사용하지 않음."},"geometry":{"type":"Polygon","coordinates":[[[126.9266135,37.5551032],[126.9617065,37.5551032],[126.9617065,37.5773634],[126.9266135,37.5773634],[126.9266135,37.5551032]]]}},{"type":"Feature","properties":{"cityCode":"SEOUL","areaCode":"SEOUL_GWANGHWAMUN_SEOCHON","areaName":"광화문·서촌","centerLongitude":"126.9700978","centerLatitude":"37.5810077","calculationMethod":"LEGAL_DONG_BOUNDARY_BBOX","notes":"법정동 경계를 모두 감싸는 초기 Kakao rect 검색 범위. Place Area 배정에는 사용하지 않음."},"geometry":{"type":"Polygon","coordinates":[[[126.9572186,37.5681365],[126.9829771,37.5681365],[126.9829771,37.5938788],[126.9572186,37.5938788],[126.9572186,37.5681365]]]}},{"type":"Feature","properties":{"cityCode":"SEOUL","areaCode":"SEOUL_BUKCHON_INSADONG_IKSUN","areaName":"북촌·인사동·종로","centerLongitude":"126.9847365","centerLatitude":"37.5818658","calculationMethod":"LEGAL_DONG_BOUNDARY_BBOX","notes":"법정동 경계를 모두 감싸는 초기 Kakao rect 검색 범위. Place Area 배정에는 사용하지 않음."},"geometry":{"type":"Polygon","coordinates":[[[126.9594195,37.5658227],[127.0100535,37.5658227],[127.0100535,37.5979089],[126.9594195,37.5979089],[126.9594195,37.5658227]]]}},{"type":"Feature","properties":{"cityCode":"SEOUL","areaCode":"SEOUL_DAEHAKRO_DONGDAEMUN","areaName":"대학로·동대문","centerLongitude":"127.0055642","centerLatitude":"37.5810676","calculationMethod":"LEGAL_DONG_BOUNDARY_BBOX","notes":"법정동 경계를 모두 감싸는 초기 Kakao rect 검색 범위. Place Area 배정에는 사용하지 않음."},"geometry":{"type":"Polygon","coordinates":[[[126.9877472,37.5697384],[127.0233813,37.5697384],[127.0233813,37.5923967],[126.9877472,37.5923967],[126.9877472,37.5697384]]]}},{"type":"Feature","properties":{"cityCode":"SEOUL","areaCode":"SEOUL_MYEONGDONG_EULJIRO","areaName":"명동·을지로","centerLongitude":"126.9967584","centerLatitude":"37.5579449","calculationMethod":"LEGAL_DONG_BOUNDARY_BBOX","notes":"법정동 경계를 모두 감싸는 초기 Kakao rect 검색 범위. Place Area 배정에는 사용하지 않음."},"geometry":{"type":"Polygon","coordinates":[[[126.9667142,37.5438649],[127.0268026,37.5438649],[127.0268026,37.5720248],[126.9667142,37.5720248],[126.9667142,37.5438649]]]}},{"type":"Feature","properties":{"cityCode":"SEOUL","areaCode":"SEOUL_SEOUL_STATION_NAMDAEMUN","areaName":"서울역·남대문","centerLongitude":"126.9671992","centerLatitude":"37.5651509","calculationMethod":"LEGAL_DONG_BOUNDARY_BBOX","notes":"법정동 경계를 모두 감싸는 초기 Kakao rect 검색 범위. Place Area 배정에는 사용하지 않음."},"geometry":{"type":"Polygon","coordinates":[[[126.9489689,37.5515522],[126.9854296,37.5515522],[126.9854296,37.5787497],[126.9489689,37.5787497],[126.9489689,37.5515522]]]}},{"type":"Feature","properties":{"cityCode":"SEOUL","areaCode":"SEOUL_HONGDAE_YEONNAM","areaName":"홍대·연남","centerLongitude":"126.9208267","centerLatitude":"37.5580677","calculationMethod":"LEGAL_DONG_BOUNDARY_BBOX","notes":"법정동 경계를 모두 감싸는 초기 Kakao rect 검색 범위. Place Area 배정에는 사용하지 않음."},"geometry":{"type":"Polygon","coordinates":[[[126.908842,37.5483265],[126.9328114,37.5483265],[126.9328114,37.5678089],[126.908842,37.5678089],[126.908842,37.5483265]]]}},{"type":"Feature","properties":{"cityCode":"SEOUL","areaCode":"SEOUL_SANGSU_HAPJEONG_MANGWON","areaName":"상수·합정·망원","centerLongitude":"126.9104861","centerLatitude":"37.5518532","calculationMethod":"LEGAL_DONG_BOUNDARY_BBOX","notes":"법정동 경계를 모두 감싸는 초기 Kakao rect 검색 범위. Place Area 배정에는 사용하지 않음."},"geometry":{"type":"Polygon","coordinates":[[[126.8881385,37.5408737],[126.9328337,37.5408737],[126.9328337,37.5628327],[126.8881385,37.5628327],[126.8881385,37.5408737]]]}},{"type":"Feature","properties":{"cityCode":"SEOUL","areaCode":"SEOUL_MAPO_GONGDEOK","areaName":"마포","centerLongitude":"126.9087803","centerLatitude":"37.5622906","calculationMethod":"LEGAL_DONG_BOUNDARY_BBOX","notes":"법정동 경계를 모두 감싸는 초기 Kakao rect 검색 범위. Place Area 배정에는 사용하지 않음."},"geometry":{"type":"Polygon","coordinates":[[[126.8536471,37.5337855],[126.9639136,37.5337855],[126.9639136,37.5907956],[126.8536471,37.5907956],[126.8536471,37.5337855]]]}},{"type":"Feature","properties":{"cityCode":"SEOUL","areaCode":"SEOUL_SEONGSU","areaName":"성수","centerLongitude":"127.0524578","centerLatitude":"37.5442167","calculationMethod":"LEGAL_DONG_BOUNDARY_BBOX","notes":"법정동 경계를 모두 감싸는 초기 Kakao rect 검색 범위. Place Area 배정에는 사용하지 않음."},"geometry":{"type":"Polygon","coordinates":[[[127.0311623,37.5283271],[127.0737532,37.5283271],[127.0737532,37.5601064],[127.0311623,37.5601064],[127.0311623,37.5283271]]]}},{"type":"Feature","properties":{"cityCode":"SEOUL","areaCode":"SEOUL_WANGSIMNI_KONKUK","areaName":"왕십리·건대","centerLongitude":"127.0617202","centerLatitude":"37.5481445","calculationMethod":"LEGAL_DONG_BOUNDARY_BBOX","notes":"법정동 경계를 모두 감싸는 초기 Kakao rect 검색 범위. Place Area 배정에는 사용하지 않음."},"geometry":{"type":"Polygon","coordinates":[[[127.0081713,37.522521],[127.115269,37.522521],[127.115269,37.5737681],[127.0081713,37.5737681],[127.0081713,37.522521]]]}},{"type":"Feature","properties":{"cityCode":"SEOUL","areaCode":"SEOUL_CHEONGNYANGNI_JUNGNANG","areaName":"청량리","centerLongitude":"127.0708238","centerLatitude":"37.5905139","calculationMethod":"LEGAL_DONG_BOUNDARY_BBOX","notes":"법정동 경계를 모두 감싸는 초기 Kakao rect 검색 범위. Place Area 배정에는 사용하지 않음."},"geometry":{"type":"Polygon","coordinates":[[[127.023156,37.5599682],[127.1184916,37.5599682],[127.1184916,37.6210597],[127.023156,37.6210597],[127.023156,37.5599682]]]}},{"type":"Feature","properties":{"cityCode":"SEOUL","areaCode":"SEOUL_YONGSAN","areaName":"용산","centerLongitude":"126.9689716","centerLatitude":"37.5311043","calculationMethod":"LEGAL_DONG_BOUNDARY_BBOX","notes":"법정동 경계를 모두 감싸는 초기 Kakao rect 검색 범위. Place Area 배정에는 사용하지 않음."},"geometry":{"type":"Polygon","coordinates":[[[126.9446021,37.5065441],[126.9933411,37.5065441],[126.9933411,37.5556645],[126.9446021,37.5556645],[126.9446021,37.5065441]]]}},{"type":"Feature","properties":{"cityCode":"SEOUL","areaCode":"SEOUL_ITAEWON_HANNAM","areaName":"이태원·한남","centerLongitude":"126.9971817","centerLatitude":"37.5283794","calculationMethod":"LEGAL_DONG_BOUNDARY_BBOX","notes":"법정동 경계를 모두 감싸는 초기 Kakao rect 검색 범위. Place Area 배정에는 사용하지 않음."},"geometry":{"type":"Polygon","coordinates":[[[126.9768171,37.5065441],[127.0175463,37.5065441],[127.0175463,37.5502148],[126.9768171,37.5502148],[126.9768171,37.5065441]]]}},{"type":"Feature","properties":{"cityCode":"SEOUL","areaCode":"SEOUL_YEOUIDO","areaName":"여의도","centerLongitude":"126.9273756","centerLatitude":"37.5284328","calculationMethod":"LEGAL_DONG_BOUNDARY_BBOX","notes":"법정동 경계를 모두 감싸는 초기 Kakao rect 검색 범위. Place Area 배정에는 사용하지 않음."},"geometry":{"type":"Polygon","coordinates":[[[126.9048485,37.5154248],[126.9499026,37.5154248],[126.9499026,37.5414408],[126.9048485,37.5414408],[126.9048485,37.5154248]]]}},{"type":"Feature","properties":{"cityCode":"SEOUL","areaCode":"SEOUL_YEONGDEUNGPO_MULLAE","areaName":"영등포·문래","centerLongitude":"126.9024244","centerLatitude":"37.5206410","calculationMethod":"LEGAL_DONG_BOUNDARY_BBOX","notes":"법정동 경계를 모두 감싸는 초기 Kakao rect 검색 범위. Place Area 배정에는 사용하지 않음."},"geometry":{"type":"Polygon","coordinates":[[[126.8779713,37.4850109],[126.9268776,37.4850109],[126.9268776,37.5562711],[126.8779713,37.5562711],[126.8779713,37.4850109]]]}},{"type":"Feature","properties":{"cityCode":"SEOUL","areaCode":"SEOUL_MOKDONG_YANGCHEON","areaName":"목동·양천","centerLongitude":"126.8561534","centerLatitude":"37.5270166","calculationMethod":"LEGAL_DONG_BOUNDARY_BBOX","notes":"법정동 경계를 모두 감싸는 초기 Kakao rect 검색 범위. Place Area 배정에는 사용하지 않음."},"geometry":{"type":"Polygon","coordinates":[[[126.8216058,37.5028768],[126.8907011,37.5028768],[126.8907011,37.5511564],[126.8216058,37.5511564],[126.8216058,37.5028768]]]}},{"type":"Feature","properties":{"cityCode":"SEOUL","areaCode":"SEOUL_GANGSEO_MAGOK","areaName":"강서·김포","centerLongitude":"126.8226938","centerLatitude":"37.5657633","calculationMethod":"LEGAL_DONG_BOUNDARY_BBOX","notes":"법정동 경계를 모두 감싸는 초기 Kakao rect 검색 범위. Place Area 배정에는 사용하지 않음."},"geometry":{"type":"Polygon","coordinates":[[[126.7645806,37.5264926],[126.8808069,37.5264926],[126.8808069,37.605034],[126.7645806,37.605034],[126.7645806,37.5264926]]]}},{"type":"Feature","properties":{"cityCode":"SEOUL","areaCode":"SEOUL_GURO_GEUMCHEON","areaName":"구로·금천","centerLongitude":"126.8707231","centerLatitude":"37.4756510","calculationMethod":"LEGAL_DONG_BOUNDARY_BBOX","notes":"법정동 경계를 모두 감싸는 초기 Kakao rect 검색 범위. Place Area 배정에는 사용하지 않음."},"geometry":{"type":"Polygon","coordinates":[[[126.8130286,37.4335223],[126.9284176,37.4335223],[126.9284176,37.5177797],[126.8130286,37.5177797],[126.8130286,37.4335223]]]}},{"type":"Feature","properties":{"cityCode":"SEOUL","areaCode":"SEOUL_GWANAK_SADANG","areaName":"관악·사당","centerLongitude":"126.9438071","centerLatitude":"37.4766726","calculationMethod":"LEGAL_DONG_BOUNDARY_BBOX","notes":"법정동 경계를 모두 감싸는 초기 Kakao rect 검색 범위. Place Area 배정에는 사용하지 않음."},"geometry":{"type":"Polygon","coordinates":[[[126.8989641,37.4357202],[126.9886501,37.4357202],[126.9886501,37.517625],[126.8989641,37.517625],[126.8989641,37.4357202]]]}},{"type":"Feature","properties":{"cityCode":"SEOUL","areaCode":"SEOUL_SEOCHO_BANPO","areaName":"서초·반포","centerLongitude":"127.0377721","centerLatitude":"37.4769740","calculationMethod":"LEGAL_DONG_BOUNDARY_BBOX","notes":"법정동 경계를 모두 감싸는 초기 Kakao rect 검색 범위. Place Area 배정에는 사용하지 않음."},"geometry":{"type":"Polygon","coordinates":[[[126.9798515,37.4283476],[127.0956926,37.4283476],[127.0956926,37.5256004],[126.9798515,37.5256004],[126.9798515,37.4283476]]]}},{"type":"Feature","properties":{"cityCode":"SEOUL","areaCode":"SEOUL_GANGNAM_YEOKSAM","areaName":"강남·역삼","centerLongitude":"127.0743622","centerLatitude":"37.4832537","calculationMethod":"LEGAL_DONG_BOUNDARY_BBOX","notes":"법정동 경계를 모두 감싸는 초기 Kakao rect 검색 범위. Place Area 배정에는 사용하지 않음."},"geometry":{"type":"Polygon","coordinates":[[[127.0245025,37.4562282],[127.124222,37.4562282],[127.124222,37.5102791],[127.0245025,37.5102791],[127.0245025,37.4562282]]]}},{"type":"Feature","properties":{"cityCode":"SEOUL","areaCode":"SEOUL_APGUJEONG_CHEONGDAM","areaName":"압구정·청담","centerLongitude":"127.0370356","centerLatitude":"37.5201650","calculationMethod":"LEGAL_DONG_BOUNDARY_BBOX","notes":"법정동 경계를 모두 감싸는 초기 Kakao rect 검색 범위. Place Area 배정에는 사용하지 않음."},"geometry":{"type":"Polygon","coordinates":[[[127.0085962,37.5044852],[127.065475,37.5044852],[127.065475,37.5358449],[127.0085962,37.5358449],[127.0085962,37.5044852]]]}},{"type":"Feature","properties":{"cityCode":"SEOUL","areaCode":"SEOUL_SAMSUNG_COEX","areaName":"삼성·코엑스","centerLongitude":"127.0607999","centerLatitude":"37.5063331","calculationMethod":"LEGAL_DONG_BOUNDARY_BBOX","notes":"법정동 경계를 모두 감싸는 초기 Kakao rect 검색 범위. Place Area 배정에는 사용하지 않음."},"geometry":{"type":"Polygon","coordinates":[[[127.0412898,37.4875932],[127.0803101,37.4875932],[127.0803101,37.525073],[127.0412898,37.525073],[127.0412898,37.4875932]]]}},{"type":"Feature","properties":{"cityCode":"SEOUL","areaCode":"SEOUL_JAMSIL_SONGPA","areaName":"잠실·송파","centerLongitude":"127.1144618","centerLatitude":"37.5048507","calculationMethod":"LEGAL_DONG_BOUNDARY_BBOX","notes":"법정동 경계를 모두 감싸는 초기 Kakao rect 검색 범위. Place Area 배정에는 사용하지 않음."},"geometry":{"type":"Polygon","coordinates":[[[127.0675201,37.4665307],[127.1614036,37.4665307],[127.1614036,37.5431706],[127.0675201,37.5431706],[127.0675201,37.4665307]]]}},{"type":"Feature","properties":{"cityCode":"SEOUL","areaCode":"SEOUL_GANGDONG","areaName":"강동","centerLongitude":"127.1464825","centerLatitude":"37.5492077","calculationMethod":"LEGAL_DONG_BOUNDARY_BBOX","notes":"법정동 경계를 모두 감싸는 초기 Kakao rect 검색 범위. Place Area 배정에는 사용하지 않음."},"geometry":{"type":"Polygon","coordinates":[[[127.1091591,37.5168404],[127.1838058,37.5168404],[127.1838058,37.581575],[127.1091591,37.581575],[127.1091591,37.5168404]]]}}]}